[{"OBJECT_NAME":"STARLINK-32079","OBJECT_ID":"2024-136H","EPOCH":"2026-03-09T10:21:28.830816","MEAN_MOTION":15.30194556,"ECCENTRICITY":0.00011689,"INCLINATION":53.1607,"RA_OF_ASC_NODE":76.9622,"ARG_OF_PERICENTER":76.0991,"MEAN_ANOMALY":284.014,"EPHEMERIS_TYPE":0,"CLASSIFICATION_TYPE":"U","NORAD_CAT_ID":60336,"ELEMENT_SET_NO":999,"REV_AT_EPOCH":8962,"BSTAR":3.3340342e-5,"MEAN_MOTION_DOT":6.28e-6,"MEAN_MOTION_DDOT":0},{"OBJECT_NAME":"OBJECT B","OBJECT_ID":"2024-153B","EPOCH":"2026-03-09T23:15:18.632160","MEAN_MOTION":15.30512917,"ECCENTRICITY":0.00113423,"INCLINATION":97.6622,"RA_OF_ASC_NODE":204.9195,"ARG_OF_PERICENTER":149.8438,"MEAN_ANOMALY":210.3457,"EPHEMERIS_TYPE":0,"CLASSIFICATION_TYPE":"U","NORAD_CAT_ID":60746,"ELEMENT_SET_NO":999,"REV_AT_EPOCH":8476,"BSTAR":0.00066193599,"MEAN_MOTION_DOT":0.00019515,"MEAN_MOTION_DDOT":0}]
